NORAD_CAT_ID,OBJECT_NAME,OBJECT_TYPE,EPOCH,MEAN_MOTION,ECCENTRICITY,INCLINATION,RA_OF_ASC_NODE,ARG_OF_PERICENTER,MEAN_ANOMALY,BSTAR,MEAN_MOTION_DOT,MEAN_MOTION_DDOT,TLE_LINE0,TLE_LINE1,TLE_LINE2,SEMIMAJOR_AXIS,PERIOD,APOGEE,PERIGEE,DECAYED
49763.0,STARLINK-3198,PAYLOAD,2024-07-19 13:12:25,15.08849631,0.0001344,53.2165,304.2774,91.5156,268.599,0.00050022,7.684e-05,0.0,0 STARLINK-3198,1 49763U 21115AR  24201.55029007  .00007684  00000-0  50022-3 0  9993,2 49763  53.2165 304.2774 0001344  91.5156 268.5990 15.08849631146497,6917.851,95.437,540.646,538.786,0.0
49763.0,STARLINK-3198,PAYLOAD,2024-07-20 00:20:06,15.08868197,0.0001318,53.2173,302.1917,99.1522,260.9619,0.00089609,0.00014013,0.0,0 STARLINK-3198,1 49763U 21115AR  24202.01396157  .00014013  00000-0  89609-3 0  9995,2 49763  53.2173 302.1917 0001318  99.1522 260.9619 15.08868197146564,6917.794,95.436,540.571,538.747,0.0
49763.0,STARLINK-3198,PAYLOAD,2024-07-20 13:03:11,15.08841978,0.0001539,53.2177,299.816,84.778,275.3388,-1.0829e-05,-4.6e-06,0.0,0 STARLINK-3198,1 49763U 21115AR  24202.54388558 -.00000460  00000-0 -10829-4 0  9991,2 49763  53.2177 299.8160 0001539  84.7780 275.3388 15.08841978146641,6917.874,95.437,540.804,538.675,0.0
49763.0,STARLINK-3198,PAYLOAD,2024-07-21 12:53:59,15.08835856,0.0001513,53.2185,295.3553,86.6442,273.4723,-5.9657e-05,-1.237e-05,0.0,0 STARLINK-3198,1 49763U 21115AR  24203.53749050 -.00001237  00000-0 -59657-4 0  9994,2 49763  53.2185 295.3553 0001513  86.6442 273.4723 15.08835856146791,6917.893,95.438,540.805,538.711,0.0
49763.0,STARLINK-3198,PAYLOAD,2024-07-22 09:33:59,15.08855215,0.0001703,53.2177,291.4885,77.9739,282.1444,-0.00060419,-9.895e-05,0.0,0 STARLINK-3198,1 49763U 21115AR  24204.39860125 -.00009895  00000-0 -60419-3 0  9991,2 49763  53.2177 291.4885 0001703  77.9739 282.1444 15.08855215146923,6917.834,95.437,540.877,538.521,0.0
49763.0,STARLINK-3198,PAYLOAD,2024-07-23 12:35:33,15.08837645,0.0001323,53.2163,286.4347,106.8374,253.2763,0.00012156,1.647e-05,0.0,0 STARLINK-3198,1 49763U 21115AR  24205.52469382  .00001647  00000-0  12156-3 0  9997,2 49763  53.2163 286.4347 0001323 106.8374 253.2763 15.08837645147099,6917.888,95.438,540.668,538.837,0.0
49763.0,STARLINK-3198,PAYLOAD,2024-07-24 04:29:25,15.08813404,0.0001624,53.2155,283.4614,113.345,246.7713,0.0011557,0.00018139,0.0,0 STARLINK-3198,1 49763U 21115AR  24206.18710571  .00018139  00000-0  11557-2 0  9996,2 49763  53.2155 283.4614 0001624 113.3450 246.7713 15.08813404147196,6917.962,95.439,540.95,538.703,0.0
49763.0,STARLINK-3198,PAYLOAD,2024-07-24 09:15:33,15.08863657,9.71e-05,53.2153,282.5676,91.1238,268.9866,-0.00069756,-0.00011379,0.0,0 STARLINK-3198,1 49763U 21115AR  24206.38580211 -.00011379  00000-0 -69756-3 0  9990,2 49763  53.2153 282.5676 0000971  91.1238 268.9866 15.08863657147227,6917.808,95.436,540.345,539.001,0.0
49763.0,STARLINK-3198,PAYLOAD,2024-07-24 14:01:42,15.08856034,0.0001066,53.2149,281.6751,93.9588,266.1526,-0.00036447,-6.086e-05,0.0,0 STARLINK-3198,1 49763U 21115AR  24206.58452494 -.00006086  00000-0 -36447-3 0  9993,2 49763  53.2149 281.6751 0001066  93.9588 266.1526 15.08856034146144,6917.831,95.437,540.434,538.959,0.0
49763.0,STARLINK-3198,PAYLOAD,2024-07-25 04:20:12,15.08838529,0.0001129,53.2134,278.9985,94.9416,265.1705,0.00015101,2.116e-05,0.0,0 STARLINK-3198,1 49763U 21115AR  24207.18069593  .00002116  00000-0  15101-3 0  9996,2 49763  53.2134 278.9985 0001129  94.9416 265.1705 15.08838529147347,6917.885,95.438,540.531,538.969,0.0
49763.0,STARLINK-3198,PAYLOAD,2024-07-25 21:49:25,15.08852219,0.0001333,53.2111,275.7265,89.5177,270.5968,0.00015798,2.228e-05,0.0,0 STARLINK-3198,1 49763U 21115AR  24207.90932728  .00002228  00000-0  15798-3 0  9991,2 49763  53.2111 275.7265 0001333  89.5177 270.5968 15.08852219147454,6917.843,95.437,540.63,538.786,0.0
49763.0,STARLINK-3198,PAYLOAD,2024-07-26 12:07:52,15.08892523,0.0001056,53.2132,273.0518,107.4247,252.686,0.00097289,0.00015252,0.0,0 STARLINK-3198,1 49763U 21115AR  24208.50546749  .00015252  00000-0  97289-3 0  9998,2 49763  53.2132 273.0518 0001056 107.4247 252.6860 15.08892523147543,6917.72,95.434,540.315,538.854,0.0
49763.0,STARLINK-3198,PAYLOAD,2024-07-27 10:23:18,15.08837582,0.0001325,53.2147,268.8902,81.3408,278.7734,-0.00013062,-2.366e-05,0.0,0 STARLINK-3198,1 49763U 21115AR  24209.43284754 -.00002366  00000-0 -13062-3 0  9997,2 49763  53.2147 268.8902 0001325  81.3408 278.7734 15.08837582147684,6917.888,95.438,540.669,538.836,0.0
49763.0,STARLINK-3198,PAYLOAD,2024-07-27 13:34:04,15.08836894,0.0001393,53.215,268.2951,74.8218,285.2928,-0.00011361,-2.095e-05,0.0,0 STARLINK-3198,1 49763U 21115AR  24209.56532858 -.00002095  00000-0 -11361-3 0  9991,2 49763  53.2150 268.2951 0001393  74.8218 285.2928 15.08836894146599,6917.89,95.438,540.719,538.791,0.0
49763.0,STARLINK-3198,PAYLOAD,2024-07-28 13:24:51,15.08838538,0.0001476,53.2152,263.8318,92.817,267.2991,4.3471e-05,4.04e-06,0.0,0 STARLINK-3198,1 49763U 21115AR  24210.55893304  .00000404  00000-0  43471-4 0  9996,2 49763  53.2152 263.8318 0001476  92.8170 267.2991 15.08838538147855,6917.885,95.438,540.771,538.729,0.0
49763.0,STARLINK-3198,PAYLOAD,2024-07-29 10:04:52,15.08844005,0.0001513,53.2149,259.9662,87.9825,272.1341,0.00036516,5.529e-05,0.0,0 STARLINK-3198,1 49763U 21115AR  24211.42005586  .00005529  00000-0  36516-3 0  9994,2 49763  53.2149 259.9662 0001513  87.9825 272.1341 15.08844005146874,6917.868,95.437,540.78,538.686,0.0
49763.0,STARLINK-3198,PAYLOAD,2024-07-30 09:55:39,15.0884792,0.0001319,53.2151,255.5065,79.4111,280.703,0.00023101,3.391e-05,0.0,0 STARLINK-3198,1 49763U 21115AR  24212.41365420  .00003391  00000-0  23101-3 0  9991,2 49763  53.2151 255.5065 0001319  79.4111 280.7030 15.08847920148134,6917.856,95.437,540.634,538.809,0.0
49763.0,STARLINK-3198,PAYLOAD,2024-07-30 19:27:57,15.0886136,0.0001398,53.2158,253.7224,82.7458,277.3693,0.00044586,6.819e-05,0.0,0 STARLINK-3198,1 49763U 21115AR  24212.81108761  .00006819  00000-0  44586-3 0  9996,2 49763  53.2158 253.7224 0001398  82.7458 277.3693 15.08861360147080,6917.815,95.436,540.647,538.713,0.0
49763.0,STARLINK-3198,PAYLOAD,2024-07-31 09:46:26,15.08839452,0.0001408,53.2158,251.0486,98.1769,261.9383,4.9328e-05,4.97e-06,0.0,0 STARLINK-3198,1 49763U 21115AR  24213.40725151  .00000497  00000-0  49328-4 0  9996,2 49763  53.2158 251.0486 0001408  98.1769 261.9383 15.08839452147171,6917.882,95.438,540.721,538.773,0.0
49763.0,STARLINK-3198,PAYLOAD,2024-07-31 19:18:45,15.08845896,0.0001405,53.2159,249.264,95.6633,264.4519,0.00010109,1.322e-05,0.0,0 STARLINK-3198,1 49763U 21115AR  24213.80468938  .00001322  00000-0  10109-3 0  9999,2 49763  53.2159 249.2640 0001405  95.6633 264.4519 15.08845896147237,6917.862,95.437,540.699,538.755,0.0
49763.0,STARLINK-3198,PAYLOAD,2024-08-01 12:48:00,15.08841269,0.0001484,53.2158,245.9918,87.8066,272.3096,7.3107e-05,8.76e-06,0.0,0 STARLINK-3198,1 49763U 21115AR  24214.53333378  .00000876  00000-0  73107-4 0  9990,2 49763  53.2158 245.9918 0001484  87.8066 272.3096 15.08841269148450,6917.877,95.437,540.768,538.715,0.0
49763.0,STARLINK-3198,PAYLOAD,2024-08-02 09:28:01,15.08839818,0.0001489,53.2158,242.1254,87.7288,272.3875,0.00011421,1.53e-05,0.0,0 STARLINK-3198,1 49763U 21115AR  24215.39445716  .00001530  00000-0  11421-3 0  9993,2 49763  53.2158 242.1254 0001489  87.7288 272.3875 15.08839818147475,6917.881,95.438,540.776,538.716,0.0
49763.0,STARLINK-3198,PAYLOAD,2024-08-03 01:21:52,15.08839566,0.0001527,53.2156,239.1514,83.1936,276.923,0.00016745,2.378e-05,0.0,0 STARLINK-3198,1 49763U 21115AR  24216.05685952  .00002378  00000-0  16745-3 0  9990,2 49763  53.2156 239.1514 0001527  83.1936 276.9230 15.08839566148680,6917.882,95.438,540.803,538.69,0.0
49763.0,STARLINK-3198,PAYLOAD,2024-08-03 09:18:48,15.08843936,0.0001398,53.2148,237.6646,90.1669,269.9483,0.00016202,2.292e-05,0.0,0 STARLINK-3198,1 49763U 21115AR  24216.38805687  .00002292  00000-0  16202-3 0  9998,2 49763  53.2148 237.6646 0001398  90.1669 269.9483 15.08843936147628,6917.868,95.437,540.7,538.766,0.0
49763.0,STARLINK-3198,PAYLOAD,2024-08-03 18:51:06,15.0884716,0.0001391,53.2148,235.8803,90.4253,269.6899,0.00020076,2.909e-05,0.0,0 STARLINK-3198,1 49763U 21115AR  24216.78549495  .00002909  00000-0  20076-3 0  9993,2 49763  53.2148 235.8803 0001391  90.4253 269.6899 15.08847160147685,6917.859,95.437,540.686,538.761,0.0
49763.0,STARLINK-3198,PAYLOAD,2024-08-04 07:34:12,15.08842666,0.000147,53.2149,233.502,90.2099,269.9061,0.00014475,2.017e-05,0.0,0 STARLINK-3198,1 49763U 21115AR  24217.31541719  .00002017  00000-0  14475-3 0  9990,2 49763  53.2149 233.5020 0001470  90.2099 269.9061 15.08842666148878,6917.872,95.437,540.754,538.72,0.0
49763.0,STARLINK-3198,PAYLOAD,2024-08-04 18:41:53,15.08848289,0.0001522,53.2152,231.4202,91.3123,268.8044,0.00020229,2.934e-05,0.0,0 STARLINK-3198,1 49763U 21115AR  24217.77909364  .00002934  00000-0  20229-3 0  9996,2 49763  53.2152 231.4202 0001522  91.3123 268.8044 15.08848289147830,6917.855,95.437,540.773,538.667,0.0
49763.0,STARLINK-3198,PAYLOAD,2024-08-05 07:24:58,15.08843612,0.0001596,53.2158,229.0411,93.902,266.2154,6.6099e-05,7.64e-06,0.0,0 STARLINK-3198,1 49763U 21115AR  24218.30901453  .00000764  00000-0  66099-4 0  9992,2 49763  53.2158 229.0411 0001596  93.9020 266.2154 15.08843612147914,6917.869,95.437,540.838,538.63,0.0
49763.0,STARLINK-3198,PAYLOAD,2024-08-06 05:40:23,15.08830225,0.0001551,53.2164,224.8778,93.47,266.6469,-5.3883e-05,-1.145e-05,0.0,0 STARLINK-3198,1 49763U 21115AR  24219.23638487 -.00001145  00000-0 -53883-4 0  9992,2 49763  53.2164 224.8778 0001551  93.4700 266.6469 15.08830225149169,6917.91,95.438,540.848,538.702,0.0
49763.0,STARLINK-3198,PAYLOAD,2024-08-06 07:15:46,15.0882921,0.0001464,53.2164,224.5801,94.4411,265.6748,-3.4201e-05,-8.32e-06,0.0,0 STARLINK-3198,1 49763U 21115AR  24219.30262478 -.00000832  00000-0 -34201-4 0  9998,2 49763  53.2164 224.5801 0001464  94.4411 265.6748 15.08829210148065,6917.913,95.438,540.791,538.766,0.0
